[{"OBJECT_NAME":"STARLINK-34352","OBJECT_ID":"2025-120B","EPOCH":"2025-10-15T10:00:40.971168","MEAN_MOTION":15.30224385,"ECCENTRICITY":0.0001027,"INCLINATION":53.1559,"RA_OF_ASC_NODE":71.5169,"ARG_OF_PERICENTER":61.8353,"MEAN_ANOMALY":298.2752,"EPHEMERIS_TYPE":0,"CLASSIFICATION_TYPE":"U","NORAD_CAT_ID":64257,"ELEMENT_SET_NO":999,"REV_AT_EPOCH":2162,"BSTAR":0.00134217,"MEAN_MOTION_DOT":0.00039634,"MEAN_MOTION_DDOT":0},{"OBJECT_NAME":"STARLINK-34308","OBJECT_ID":"2025-120C","EPOCH":"2025-10-15T15:58:39.343296","MEAN_MOTION":15.30203033,"ECCENTRICITY":4.538e-5,"INCLINATION":53.1633,"RA_OF_ASC_NODE":70.2241,"ARG_OF_PERICENTER":55.444,"MEAN_ANOMALY":304.6604,"EPHEMERIS_TYPE":0,"CLASSIFICATION_TYPE":"U","NORAD_CAT_ID":64258,"ELEMENT_SET_NO":999,"REV_AT_EPOCH":2166,"BSTAR":0.0011545181,"MEAN_MOTION_DOT":0.00033994,"MEAN_MOTION_DDOT":0},{"OBJECT_NAME":"STARLINK-34306","OBJECT_ID":"2025-120D","EPOCH":"2025-10-14T19:14:41.491104","MEAN_MOTION":15.30203941,"ECCENTRICITY":0.00011641,"INCLINATION":53.1605,"RA_OF_ASC_NODE":74.075,"ARG_OF_PERICENTER":90.5822,"MEAN_ANOMALY":269.5312,"EPHEMERIS_TYPE":0,"CLASSIFICATION_TYPE":"U","NORAD_CAT_ID":64259,"ELEMENT_SET_NO":999,"REV_AT_EPOCH":2153,"BSTAR":0.00097971737,"MEAN_MOTION_DOT":0.00028773,"MEAN_MOTION_DDOT":0},{"OBJECT_NAME":"STARLINK-34281","OBJECT_ID":"2025-120E","EPOCH":"2025-10-15T16:03:12.849408","MEAN_MOTION":15.30258276,"ECCENTRICITY":0.0001255,"INCLINATION":53.1589,"RA_OF_ASC_NODE":70.2416,"ARG_OF_PERICENTER":93.9638,"MEAN_ANOMALY":266.1506,"EPHEMERIS_TYPE":0,"CLASSIFICATION_TYPE":"U","NORAD_CAT_ID":64260,"ELEMENT_SET_NO":999,"REV_AT_EPOCH":2166,"BSTAR":0.0021537593,"MEAN_MOTION_DOT":0.00064097,"MEAN_MOTION_DDOT":0},{"OBJECT_NAME":"STARLINK-34297","OBJECT_ID":"2025-120F","EPOCH":"2025-10-14T10:20:46.233024","MEAN_MOTION":15.3020175,"ECCENTRICITY":7.563e-5,"INCLINATION":53.1583,"RA_OF_ASC_NODE":76.028,"ARG_OF_PERICENTER":353.4837,"MEAN_ANOMALY":6.6154,"EPHEMERIS_TYPE":0,"CLASSIFICATION_TYPE":"U","NORAD_CAT_ID":64261,"ELEMENT_SET_NO":999,"REV_AT_EPOCH":2142,"BSTAR":0.0012189748,"MEAN_MOTION_DOT":0.0003592,"MEAN_MOTION_DDOT":0},{"OBJECT_NAME":"STARLINK-34325","OBJECT_ID":"2025-120G","EPOCH":"2025-10-15T10:28:02.112384","MEAN_MOTION":15.30200799,"ECCENTRICITY":0.00012359,"INCLINATION":53.1577,"RA_OF_ASC_NODE":71.6323,"ARG_OF_PERICENTER":82.044,"MEAN_ANOMALY":278.0701,"EPHEMERIS_TYPE":0,"CLASSIFICATION_TYPE":"U","NORAD_CAT_ID":64262,"ELEMENT_SET_NO":999,"REV_AT_EPOCH":2167,"BSTAR":0.0014195995,"MEAN_MOTION_DOT":0.00041924,"MEAN_MOTION_DDOT":0},{"OBJECT_NAME":"STARLINK-34276","OBJECT_ID":"2025-120H","EPOCH":"2025-10-15T15:54:05.814720","MEAN_MOTION":15.30216386,"ECCENTRICITY":5.753e-5,"INCLINATION":53.163,"RA_OF_ASC_NODE":70.2036,"ARG_OF_PERICENTER":73.0855,"MEAN_ANOMALY":287.0209,"EPHEMERIS_TYPE":0,"CLASSIFICATION_TYPE":"U","NORAD_CAT_ID":64263,"ELEMENT_SET_NO":999,"REV_AT_EPOCH":2171,"BSTAR":0.0012954927,"MEAN_MOTION_DOT":0.00038226,"MEAN_MOTION_DDOT":0},{"OBJECT_NAME":"STARLINK-34333","OBJECT_ID":"2025-120J","EPOCH":"2025-10-15T03:01:55.259328","MEAN_MOTION":15.30205497,"ECCENTRICITY":0.0001677,"INCLINATION":53.1567,"RA_OF_ASC_NODE":72.547,"ARG_OF_PERICENTER":85.1306,"MEAN_ANOMALY":274.9886,"EPHEMERIS_TYPE":0,"CLASSIFICATION_TYPE":"U","NORAD_CAT_ID":64264,"ELEMENT_SET_NO":999,"REV_AT_EPOCH":2158,"BSTAR":0.0012784007,"MEAN_MOTION_DOT":0.00037702,"MEAN_MOTION_DDOT":0},{"OBJECT_NAME":"STARLINK-34240","OBJECT_ID":"2025-120K","EPOCH":"2025-10-15T02:52:57.732960","MEAN_MOTION":15.30213441,"ECCENTRICITY":9.798e-5,"INCLINATION":53.1588,"RA_OF_ASC_NODE":73.2151,"ARG_OF_PERICENTER":88.6455,"MEAN_ANOMALY":271.4658,"EPHEMERIS_TYPE":0,"CLASSIFICATION_TYPE":"U","NORAD_CAT_ID":64265,"ELEMENT_SET_NO":999,"REV_AT_EPOCH":2162,"BSTAR":0.00095267161,"MEAN_MOTION_DOT":0.00027974,"MEAN_MOTION_DDOT":0},{"OBJECT_NAME":"STARLINK-34315","OBJECT_ID":"2025-120L","EPOCH":"2025-10-15T10:20:26.094912","MEAN_MOTION":15.30192717,"ECCENTRICITY":0.00019232,"INCLINATION":53.1577,"RA_OF_ASC_NODE":71.6034,"ARG_OF_PERICENTER":104.9128,"MEAN_ANOMALY":255.2086,"EPHEMERIS_TYPE":0,"CLASSIFICATION_TYPE":"U","NORAD_CAT_ID":64266,"ELEMENT_SET_NO":999,"REV_AT_EPOCH":2161,"BSTAR":0.00091315218,"MEAN_MOTION_DOT":0.00026778,"MEAN_MOTION_DDOT":0},{"OBJECT_NAME":"STARLINK-34321","OBJECT_ID":"2025-120M","EPOCH":"2025-10-15T03:07:59.875968","MEAN_MOTION":15.30222602,"ECCENTRICITY":9.17e-5,"INCLINATION":53.1604,"RA_OF_ASC_NODE":72.5702,"ARG_OF_PERICENTER":74.2759,"MEAN_ANOMALY":285.8342,"EPHEMERIS_TYPE":0,"CLASSIFICATION_TYPE":"U","NORAD_CAT_ID":64267,"ELEMENT_SET_NO":999,"REV_AT_EPOCH":2163,"BSTAR":0.0011180136,"MEAN_MOTION_DOT":0.00032923,"MEAN_MOTION_DDOT":0},{"OBJECT_NAME":"STARLINK-34319","OBJECT_ID":"2025-120N","EPOCH":"2025-10-15T09:50:02.125248","MEAN_MOTION":15.30218129,"ECCENTRICITY":0.0001188,"INCLINATION":53.1592,"RA_OF_ASC_NODE":71.466,"ARG_OF_PERICENTER":81.9448,"MEAN_ANOMALY":278.1688,"EPHEMERIS_TYPE":0,"CLASSIFICATION_TYPE":"U","NORAD_CAT_ID":64268,"ELEMENT_SET_NO":999,"REV_AT_EPOCH":2167,"BSTAR":0.00055015036,"MEAN_MOTION_DOT":0.00015979,"MEAN_MOTION_DDOT":0},{"OBJECT_NAME":"STARLINK-34298","OBJECT_ID":"2025-120P","EPOCH":"2025-10-15T15:44:58.864704","MEAN_MOTION":15.30233994,"ECCENTRICITY":0.00028202,"INCLINATION":53.1586,"RA_OF_ASC_NODE":70.1644,"ARG_OF_PERICENTER":84.0413,"MEAN_ANOMALY":276.0909,"EPHEMERIS_TYPE":0,"CLASSIFICATION_TYPE":"U","NORAD_CAT_ID":64269,"ELEMENT_SET_NO":999,"REV_AT_EPOCH":2161,"BSTAR":0.0013006815,"MEAN_MOTION_DOT":0.00038405,"MEAN_MOTION_DDOT":0},{"OBJECT_NAME":"STARLINK-34219","OBJECT_ID":"2025-120Q","EPOCH":"2025-10-14T22:00:09.900000","MEAN_MOTION":15.30216771,"ECCENTRICITY":0.00011098,"INCLINATION":53.1585,"RA_OF_ASC_NODE":74.0774,"ARG_OF_PERICENTER":100.3112,"MEAN_ANOMALY":259.8014,"EPHEMERIS_TYPE":0,"CLASSIFICATION_TYPE":"U","NORAD_CAT_ID":64270,"ELEMENT_SET_NO":999,"REV_AT_EPOCH":2159,"BSTAR":0.0018114607,"MEAN_MOTION_DOT":0.00053707,"MEAN_MOTION_DDOT":0},{"OBJECT_NAME":"STARLINK-34342","OBJECT_ID":"2025-120R","EPOCH":"2025-10-14T16:50:39.257664","MEAN_MOTION":15.30191956,"ECCENTRICITY":4.18e-5,"INCLINATION":53.1575,"RA_OF_ASC_NODE":74.8719,"ARG_OF_PERICENTER":38.0383,"MEAN_ANOMALY":322.0647,"EPHEMERIS_TYPE":0,"CLASSIFICATION_TYPE":"U","NORAD_CAT_ID":64271,"ELEMENT_SET_NO":999,"REV_AT_EPOCH":2151,"BSTAR":0.00094659945,"MEAN_MOTION_DOT":0.00027774,"MEAN_MOTION_DDOT":0},{"OBJECT_NAME":"STARLINK-34001","OBJECT_ID":"2025-120S","EPOCH":"2025-10-15T02:48:24.322752","MEAN_MOTION":15.30217801,"ECCENTRICITY":0.00012723,"INCLINATION":53.1585,"RA_OF_ASC_NODE":73.1995,"ARG_OF_PERICENTER":89.7062,"MEAN_ANOMALY":270.4084,"EPHEMERIS_TYPE":0,"CLASSIFICATION_TYPE":"U","NORAD_CAT_ID":64272,"ELEMENT_SET_NO":999,"REV_AT_EPOCH":2152,"BSTAR":0.0010924606,"MEAN_MOTION_DOT":0.00032154,"MEAN_MOTION_DDOT":0},{"OBJECT_NAME":"STARLINK-34334","OBJECT_ID":"2025-120T","EPOCH":"2025-10-15T02:57:21.216672","MEAN_MOTION":15.30209329,"ECCENTRICITY":8.75e-6,"INCLINATION":53.159,"RA_OF_ASC_NODE":72.5247,"ARG_OF_PERICENTER":215.3944,"MEAN_ANOMALY":144.7051,"EPHEMERIS_TYPE":0,"CLASSIFICATION_TYPE":"U","NORAD_CAT_ID":64273,"ELEMENT_SET_NO":999,"REV_AT_EPOCH":2163,"BSTAR":0.00077266827,"MEAN_MOTION_DOT":0.00022602,"MEAN_MOTION_DDOT":0},{"OBJECT_NAME":"STARLINK-34272","OBJECT_ID":"2025-120U","EPOCH":"2025-10-15T02:39:17.447904","MEAN_MOTION":15.30209809,"ECCENTRICITY":0.00017265,"INCLINATION":53.1585,"RA_OF_ASC_NODE":73.1579,"ARG_OF_PERICENTER":83.7839,"MEAN_ANOMALY":276.3358,"EPHEMERIS_TYPE":0,"CLASSIFICATION_TYPE":"U","NORAD_CAT_ID":64274,"ELEMENT_SET_NO":999,"REV_AT_EPOCH":2152,"BSTAR":0.00090684343,"MEAN_MOTION_DOT":0.00026603,"MEAN_MOTION_DDOT":0},{"OBJECT_NAME":"STARLINK-34293","OBJECT_ID":"2025-120V","EPOCH":"2025-10-15T02:43:50.827872","MEAN_MOTION":15.30215515,"ECCENTRICITY":0.00013257,"INCLINATION":53.1581,"RA_OF_ASC_NODE":73.1723,"ARG_OF_PERICENTER":91.5611,"MEAN_ANOMALY":268.5541,"EPHEMERIS_TYPE":0,"CLASSIFICATION_TYPE":"U","NORAD_CAT_ID":64275,"ELEMENT_SET_NO":999,"REV_AT_EPOCH":2156,"BSTAR":0.0011206317,"MEAN_MOTION_DOT":0.00032994,"MEAN_MOTION_DDOT":0},{"OBJECT_NAME":"STARLINK-34350","OBJECT_ID":"2025-120W","EPOCH":"2025-10-15T15:49:33.217536","MEAN_MOTION":15.30242422,"ECCENTRICITY":0.00015358,"INCLINATION":53.1611,"RA_OF_ASC_NODE":70.18,"ARG_OF_PERICENTER":70.5632,"MEAN_ANOMALY":289.5535,"EPHEMERIS_TYPE":0,"CLASSIFICATION_TYPE":"U","NORAD_CAT_ID":64276,"ELEMENT_SET_NO":999,"REV_AT_EPOCH":2171,"BSTAR":0.001219014,"MEAN_MOTION_DOT":0.00035967,"MEAN_MOTION_DDOT":0},{"OBJECT_NAME":"STARLINK-34264","OBJECT_ID":"2025-120X","EPOCH":"2025-10-15T10:11:18.925440","MEAN_MOTION":15.30218143,"ECCENTRICITY":0.00012288,"INCLINATION":53.1603,"RA_OF_ASC_NODE":71.5584,"ARG_OF_PERICENTER":95.4563,"MEAN_ANOMALY":264.6578,"EPHEMERIS_TYPE":0,"CLASSIFICATION_TYPE":"U","NORAD_CAT_ID":64277,"ELEMENT_SET_NO":999,"REV_AT_EPOCH":2161,"BSTAR":0.0013070974,"MEAN_MOTION_DOT":0.00038576,"MEAN_MOTION_DDOT":0},{"OBJECT_NAME":"STARLINK-34353","OBJECT_ID":"2025-120Y","EPOCH":"2025-10-15T10:24:59.389344","MEAN_MOTION":15.30222766,"ECCENTRICITY":0.0001139,"INCLINATION":53.1578,"RA_OF_ASC_NODE":71.6216,"ARG_OF_PERICENTER":85.9153,"MEAN_ANOMALY":274.1978,"EPHEMERIS_TYPE":0,"CLASSIFICATION_TYPE":"U","NORAD_CAT_ID":64278,"ELEMENT_SET_NO":999,"REV_AT_EPOCH":2167,"BSTAR":0.0010392294,"MEAN_MOTION_DOT":0.00030568,"MEAN_MOTION_DDOT":0},{"OBJECT_NAME":"STARLINK-34377","OBJECT_ID":"2025-120Z","EPOCH":"2025-10-15T15:57:08.158464","MEAN_MOTION":15.30205908,"ECCENTRICITY":4.164e-5,"INCLINATION":53.1631,"RA_OF_ASC_NODE":70.2109,"ARG_OF_PERICENTER":358.1018,"MEAN_ANOMALY":1.9981,"EPHEMERIS_TYPE":0,"CLASSIFICATION_TYPE":"U","NORAD_CAT_ID":64279,"ELEMENT_SET_NO":999,"REV_AT_EPOCH":2171,"BSTAR":0.0011726823,"MEAN_MOTION_DOT":0.0003454,"MEAN_MOTION_DDOT":0}]
